STARLINK-31000          
1 58488U 23186R   26068.41197094  .00000553  00000+0  29611-4 0  9995
2 58488  43.0013  65.2185 0000863 279.8571  80.2183 15.27580413125847
FLOCK 4G-25             
1 62646U 25009AP  26068.74572546  .00010373  00000+0  38902-3 0  9990
2 62646  97.4049 151.4141 0000828 316.3151  43.8023 15.27424196 63734
